ONEWEB-0629             
1 55170U 23004AG  26114.19880917 -.00000116  00000+0 -33089-3 0  9999
2 55170  87.9189  16.5975 0001966  88.0069 272.1288 13.17646977160477
ONEWEB-0631             
1 55171U 23004AH  26114.15300782 -.00001826  00000+0 -46680-2 0  9992
2 55171  87.9191 346.1833 0000953  81.9373 278.1868 13.18647949162553
ONEWEB-0709             
1 55172U 23004AJ  26114.18622018 -.00000496  00000+0 -14358-2 0  9994
2 55172  87.8919  31.8163 0001873  50.6049 309.5245 13.11416637158790
ONEWEB-0710             
1 55173U 23004AK  26114.21316623  .00000056  00000+0  11203-3 0  9998
2 55173  87.9183  16.5902 0001678  82.6958 277.4365 13.17648840160476
ONEWEB-0711             
1 55174U 23004AL  26114.23370616  .00000172  00000+0  44933-3 0  9998
2 55174  87.8917  31.7933 0001328 100.3387 259.7891 13.11415325158760
ONEWEB-0713             
1 55175U 23004AM  26114.17605070 -.00000454  00000+0 -13175-2 0  9995
2 55175  87.8927  31.8040 0001544  88.3252 271.8053 13.11416176158746
ONEWEB-0715             
1 55176U 23004AN  26114.17096557 -.00000343  00000+0 -10035-2 0  9999
2 55176  87.8941  31.8051 0001427  53.9309 306.1951 13.11415746158781
ONEWEB-0716             
1 55177U 23004AP  26114.20641197 -.00000134  00000+0 -37808-3 0  9996
2 55177  87.9196  16.5912 0001990  75.0895 285.0457 13.17649111160477
ONEWEB-0717             
1 55178U 23004AQ  26114.18953825  .00000005  00000+0 -19439-4 0  9995
2 55178  87.9193  16.5798 0001280  97.0912 263.0365 13.17648537160524
ONEWEB-0719             
1 55179U 23004AR  26114.19966253 -.00000066  00000+0 -20432-3 0  9998
2 55179  87.9198  16.5581 0001964  82.8863 277.2492 13.17648973160472
ONEWEB-0530             
1 55796U 23029A   26114.00004288  .00002297  00000+0  56140-2 0  9991
2 55796  87.9126 285.2887 0001894 109.2592 250.8746 13.20799880153993
ONEWEB-0534             
1 55797U 23029B   26113.98746063  .00000068  00000+0  13561-3 0  9997
2 55797  87.9133 285.2903 0001893  92.4241 267.7109 13.20773342153999
ONEWEB-0556             
1 55798U 23029C   26113.99380349 -.00000014  00000+0 -65707-4 0  9993
2 55798  87.9129 285.2900 0002572 103.2106 256.9315 13.20771490153999
ONEWEB-0562             
1 55799U 23029D   26113.98114772  .00000010  00000+0 -80197-5 0  9994
2 55799  87.9127 285.2732 0002151 117.4731 242.6621 13.20773370153996
ONEWEB-0563             
1 55800U 23029E   26113.97485760  .00000040  00000+0  66803-4 0  9993
2 55800  87.9131 285.3046 0002037  91.1620 268.9746 13.20772314153986
ONEWEB-0564             
1 55801U 23029F   26114.19579751  .00000073  00000+0  14862-3 0  9996
2 55801  87.9131 285.2333 0001842 106.5469 253.5867 13.20773597154024
