[{"OBJECT_NAME":"ONEWEB-0629","OBJECT_ID":"2023-004AG","EPOCH":"2026-04-24T04:46:17.112288","MEAN_MOTION":13.17646977,"ECCENTRICITY":0.0001966,"INCLINATION":87.9189,"RA_OF_ASC_NODE":16.5975,"ARG_OF_PERICENTER":88.0069,"MEAN_ANOMALY":272.1288,"EPHEMERIS_TYPE":0,"CLASSIFICATION_TYPE":"U","NORAD_CAT_ID":55170,"ELEMENT_SET_NO":999,"REV_AT_EPOCH":16047,"BSTAR":-0.00033089,"MEAN_MOTION_DOT":-1.16e-06,"MEAN_MOTION_DDOT":0.0},{"OBJECT_NAME":"ONEWEB-0631","OBJECT_ID":"2023-004AH","EPOCH":"2026-04-24T03:40:19.875648","MEAN_MOTION":13.18647949,"ECCENTRICITY":9.53e-05,"INCLINATION":87.9191,"RA_OF_ASC_NODE":346.1833,"ARG_OF_PERICENTER":81.9373,"MEAN_ANOMALY":278.1868,"EPHEMERIS_TYPE":0,"CLASSIFICATION_TYPE":"U","NORAD_CAT_ID":55171,"ELEMENT_SET_NO":999,"REV_AT_EPOCH":16255,"BSTAR":-0.004668,"MEAN_MOTION_DOT":-1.826e-05,"MEAN_MOTION_DDOT":0.0},{"OBJECT_NAME":"ONEWEB-0709","OBJECT_ID":"2023-004AJ","EPOCH":"2026-04-24T04:28:09.423552","MEAN_MOTION":13.11416637,"ECCENTRICITY":0.0001873,"INCLINATION":87.8919,"RA_OF_ASC_NODE":31.8163,"ARG_OF_PERICENTER":50.6049,"MEAN_ANOMALY":309.5245,"EPHEMERIS_TYPE":0,"CLASSIFICATION_TYPE":"U","NORAD_CAT_ID":55172,"ELEMENT_SET_NO":999,"REV_AT_EPOCH":15879,"BSTAR":-0.0014358,"MEAN_MOTION_DOT":-4.96e-06,"MEAN_MOTION_DDOT":0.0},{"OBJECT_NAME":"ONEWEB-0710","OBJECT_ID":"2023-004AK","EPOCH":"2026-04-24T05:06:57.562272","MEAN_MOTION":13.1764884,"ECCENTRICITY":0.0001678,"INCLINATION":87.9183,"RA_OF_ASC_NODE":16.5902,"ARG_OF_PERICENTER":82.6958,"MEAN_ANOMALY":277.4365,"EPHEMERIS_TYPE":0,"CLASSIFICATION_TYPE":"U","NORAD_CAT_ID":55173,"ELEMENT_SET_NO":999,"REV_AT_EPOCH":16047,"BSTAR":0.00011203000000000001,"MEAN_MOTION_DOT":5.6e-07,"MEAN_MOTION_DDOT":0.0},{"OBJECT_NAME":"ONEWEB-0711","OBJECT_ID":"2023-004AL","EPOCH":"2026-04-24T05:36:32.212224","MEAN_MOTION":13.11415325,"ECCENTRICITY":0.0001328,"INCLINATION":87.8917,"RA_OF_ASC_NODE":31.7933,"ARG_OF_PERICENTER":100.3387,"MEAN_ANOMALY":259.7891,"EPHEMERIS_TYPE":0,"CLASSIFICATION_TYPE":"U","NORAD_CAT_ID":55174,"ELEMENT_SET_NO":999,"REV_AT_EPOCH":15876,"BSTAR":0.00044933,"MEAN_MOTION_DOT":1.72e-06,"MEAN_MOTION_DDOT":0.0},{"OBJECT_NAME":"ONEWEB-0713","OBJECT_ID":"2023-004AM","EPOCH":"2026-04-24T04:13:30.780480","MEAN_MOTION":13.11416176,"ECCENTRICITY":0.0001544,"INCLINATION":87.8927,"RA_OF_ASC_NODE":31.804,"ARG_OF_PERICENTER":88.3252,"MEAN_ANOMALY":271.8053,"EPHEMERIS_TYPE":0,"CLASSIFICATION_TYPE":"U","NORAD_CAT_ID":55175,"ELEMENT_SET_NO":999,"REV_AT_EPOCH":15874,"BSTAR":-0.0013175,"MEAN_MOTION_DOT":-4.54e-06,"MEAN_MOTION_DDOT":0.0},{"OBJECT_NAME":"ONEWEB-0715","OBJECT_ID":"2023-004AN","EPOCH":"2026-04-24T04:06:11.425248","MEAN_MOTION":13.11415746,"ECCENTRICITY":0.0001427,"INCLINATION":87.8941,"RA_OF_ASC_NODE":31.8051,"ARG_OF_PERICENTER":53.9309,"MEAN_ANOMALY":306.1951,"EPHEMERIS_TYPE":0,"CLASSIFICATION_TYPE":"U","NORAD_CAT_ID":55176,"ELEMENT_SET_NO":999,"REV_AT_EPOCH":15878,"BSTAR":-0.0010035,"MEAN_MOTION_DOT":-3.43e-06,"MEAN_MOTION_DDOT":0.0},{"OBJECT_NAME":"ONEWEB-0716","OBJECT_ID":"2023-004AP","EPOCH":"2026-04-24T04:57:13.994208","MEAN_MOTION":13.17649111,"ECCENTRICITY":0.000199,"INCLINATION":87.9196,"RA_OF_ASC_NODE":16.5912,"ARG_OF_PERICENTER":75.0895,"MEAN_ANOMALY":285.0457,"EPHEMERIS_TYPE":0,"CLASSIFICATION_TYPE":"U","NORAD_CAT_ID":55177,"ELEMENT_SET_NO":999,"REV_AT_EPOCH":16047,"BSTAR":-0.00037808000000000004,"MEAN_MOTION_DOT":-1.34e-06,"MEAN_MOTION_DDOT":0.0},{"OBJECT_NAME":"ONEWEB-0717","OBJECT_ID":"2023-004AQ","EPOCH":"2026-04-24T04:32:56.104800","MEAN_MOTION":13.17648537,"ECCENTRICITY":0.000128,"INCLINATION":87.9193,"RA_OF_ASC_NODE":16.5798,"ARG_OF_PERICENTER":97.0912,"MEAN_ANOMALY":263.0365,"EPHEMERIS_TYPE":0,"CLASSIFICATION_TYPE":"U","NORAD_CAT_ID":55178,"ELEMENT_SET_NO":999,"REV_AT_EPOCH":16052,"BSTAR":-1.9439e-05,"MEAN_MOTION_DOT":5e-08,"MEAN_MOTION_DDOT":0.0},{"OBJECT_NAME":"ONEWEB-0719","OBJECT_ID":"2023-004AR","EPOCH":"2026-04-24T04:47:30.842592","MEAN_MOTION":13.17648973,"ECCENTRICITY":0.0001964,"INCLINATION":87.9198,"RA_OF_ASC_NODE":16.5581,"ARG_OF_PERICENTER":82.8863,"MEAN_ANOMALY":277.2492,"EPHEMERIS_TYPE":0,"CLASSIFICATION_TYPE":"U","NORAD_CAT_ID":55179,"ELEMENT_SET_NO":999,"REV_AT_EPOCH":16047,"BSTAR":-0.00020432,"MEAN_MOTION_DOT":-6.6e-07,"MEAN_MOTION_DDOT":0.0},{"OBJECT_NAME":"ONEWEB-0530","OBJECT_ID":"2023-029A","EPOCH":"2026-04-24T00:00:03.704832","MEAN_MOTION":13.2079988,"ECCENTRICITY":0.0001894,"INCLINATION":87.9126,"RA_OF_ASC_NODE":285.2887,"ARG_OF_PERICENTER":109.2592,"MEAN_ANOMALY":250.8746,"EPHEMERIS_TYPE":0,"CLASSIFICATION_TYPE":"U","NORAD_CAT_ID":55796,"ELEMENT_SET_NO":999,"REV_AT_EPOCH":15399,"BSTAR":0.005614,"MEAN_MOTION_DOT":2.297e-05,"MEAN_MOTION_DDOT":0.0},{"OBJECT_NAME":"ONEWEB-0534","OBJECT_ID":"2023-029B","EPOCH":"2026-04-23T23:41:56.598432","MEAN_MOTION":13.20773342,"ECCENTRICITY":0.0001893,"INCLINATION":87.9133,"RA_OF_ASC_NODE":285.2903,"ARG_OF_PERICENTER":92.4241,"MEAN_ANOMALY":267.7109,"EPHEMERIS_TYPE":0,"CLASSIFICATION_TYPE":"U","NORAD_CAT_ID":55797,"ELEMENT_SET_NO":999,"REV_AT_EPOCH":15399,"BSTAR":0.00013561,"MEAN_MOTION_DOT":6.8e-07,"MEAN_MOTION_DDOT":0.0},{"OBJECT_NAME":"ONEWEB-0556","OBJECT_ID":"2023-029C","EPOCH":"2026-04-23T23:51:04.621536","MEAN_MOTION":13.2077149,"ECCENTRICITY":0.0002572,"INCLINATION":87.9129,"RA_OF_ASC_NODE":285.29,"ARG_OF_PERICENTER":103.2106,"MEAN_ANOMALY":256.9315,"EPHEMERIS_TYPE":0,"CLASSIFICATION_TYPE":"U","NORAD_CAT_ID":55798,"ELEMENT_SET_NO":999,"REV_AT_EPOCH":15399,"BSTAR":-6.570700000000001e-05,"MEAN_MOTION_DOT":-1.4e-07,"MEAN_MOTION_DDOT":0.0},{"OBJECT_NAME":"ONEWEB-0562","OBJECT_ID":"2023-029D","EPOCH":"2026-04-23T23:32:51.163008","MEAN_MOTION":13.2077337,"ECCENTRICITY":0.0002151,"INCLINATION":87.9127,"RA_OF_ASC_NODE":285.2732,"ARG_OF_PERICENTER":117.4731,"MEAN_ANOMALY":242.6621,"EPHEMERIS_TYPE":0,"CLASSIFICATION_TYPE":"U","NORAD_CAT_ID":55799,"ELEMENT_SET_NO":999,"REV_AT_EPOCH":15399,"BSTAR":-8.0197e-06,"MEAN_MOTION_DOT":1e-07,"MEAN_MOTION_DDOT":0.0},{"OBJECT_NAME":"ONEWEB-0563","OBJECT_ID":"2023-029E","EPOCH":"2026-04-23T23:23:47.696640","MEAN_MOTION":13.20772314,"ECCENTRICITY":0.0002037,"INCLINATION":87.9131,"RA_OF_ASC_NODE":285.3046,"ARG_OF_PERICENTER":91.162,"MEAN_ANOMALY":268.9746,"EPHEMERIS_TYPE":0,"CLASSIFICATION_TYPE":"U","NORAD_CAT_ID":55800,"ELEMENT_SET_NO":999,"REV_AT_EPOCH":15398,"BSTAR":6.6803e-05,"MEAN_MOTION_DOT":4e-07,"MEAN_MOTION_DDOT":0.0},{"OBJECT_NAME":"ONEWEB-0564","OBJECT_ID":"2023-029F","EPOCH":"2026-04-24T04:41:56.904864","MEAN_MOTION":13.20773597,"ECCENTRICITY":0.0001842,"INCLINATION":87.9131,"RA_OF_ASC_NODE":285.2333,"ARG_OF_PERICENTER":106.5469,"MEAN_ANOMALY":253.5867,"EPHEMERIS_TYPE":0,"CLASSIFICATION_TYPE":"U","NORAD_CAT_ID":55801,"ELEMENT_SET_NO":999,"REV_AT_EPOCH":15402,"BSTAR":0.00014862,"MEAN_MOTION_DOT":7.3e-07,"MEAN_MOTION_DDOT":0.0}]